      2.10          N: GNSS NAV DATA                        RINEX VERSION / TYPE
fic2rin                                 03/30/2023 00:17:34 PGM / RUN BY / DATE
                                                            END OF HEADER
8  23  3 29  1 59 44.0 -.115151517093D-03 -.181898940355D-11  .000000000000D+00
     .500000000000D+01  .520937500000D+02  .457840499466D-08 -.878136370362D-01
     .285729765892D-05  .842956406996D-02  .588595867157D-05  .515367549896D+04
     .266384000000D+06  .100582838058D-06  .230535891202D+01  .149011611938D-07
     .959398151767D+00  .264093750000D+03  .244697767684D+00 -.823534303509D-08
     .196436753808D-10  .100000000000D+01  .225500000000D+04  .000000000000D+00
     .240000000000D+01  .000000000000D+00  .512227416039D-08  .500000000000D+01
     .259200000000D+06  .400000000000D+01
21 23  3 29  2  0  0.0  .154321081936D-03  .000000000000D+00  .000000000000D+00
     .112000000000D+03 -.968750000000D+01  .476019828137D-08 -.139001664354D+00
    -.718981027603D-06  .248080488527D-01  .433623790741D-05  .515363582420D+04
     .266400000000D+06 -.186264514923D-08 -.299003883612D+01 -.415369868279D-06
     .961857848097D+00  .300468750000D+03 -.787621637957D+00 -.860821570959D-08
     .107147320259D-09  .100000000000D+01  .225500000000D+04  .000000000000D+00
     .485000000000D+01  .000000000000D+00 -.102445483208D-07  .112000000000D+03
     .259200000000D+06  .400000000000D+01
21 23  3 29  1 59 44.0  .154323875904D-03  .000000000000D+00  .000000000000D+00
     .150000000000D+02 -.968750000000D+01  .476019828137D-08 -.141335497065D+00
    -.718981027603D-06  .248080485035D-01  .433623790741D-05  .515363582802D+04
     .266384000000D+06 -.186264514923D-08 -.299003869422D+01 -.415369868279D-06
     .961857837857D+00  .300468750000D+03 -.787621649660D+00 -.860821570959D-08
     .107504477993D-09  .100000000000D+01  .225500000000D+04  .000000000000D+00
     .240000000000D+01  .000000000000D+00 -.102445483208D-07  .150000000000D+02
     .259980000000D+06  .400000000000D+01
18 23  3 29  2 59 44.0 -.200061593205D-03 -.167119651451D-10  .000000000000D+00
     .194000000000D+03 -.165000000000D+02  .435803867266D-08 -.163407939799D+01
    -.994652509689D-06  .302854180336D-02  .389106571674D-05  .515368442154D+04
     .269984000000D+06  .223517417908D-07 -.288627127868D+01 -.260770320892D-07
     .973814615493D+00  .312343750000D+03 -.312808070480D+01 -.813855328913D-08
     .103575742917D-09  .100000000000D+01  .225500000000D+04  .000000000000D+00
     .240000000000D+01  .000000000000D+00 -.838190317154D-08  .962000000000D+03
     .262800000000D+06  .400000000000D+01
13 23  3 29  1 59 44.0  .497584231198D-03  .568434188608D-11  .000000000000D+00
     .300000000000D+01 -.288437500000D+02  .441696969880D-08 -.510177136640D+00
    -.151060521603D-05  .682550971396D-02  .804848968983D-05  .515366537476D+04
     .266384000000D+06 -.335276126862D-07 -.672622212432D+00  .126659870148D-06
     .969682284462D+00  .226562500000D+03  .919071331513D+00 -.795926010656D-08
     .696457581682D-10  .100000000000D+01  .225500000000D+04  .000000000000D+00
     .240000000000D+01  .000000000000D+00 -.111758708954D-07  .300000000000D+01
     .263190000000D+06  .400000000000D+01
3  23  3 29  1 59 44.0 -.341044273227D-03  .761701812735D-11  .000000000000D+00
     .440000000000D+02 -.607187500000D+02  .407052669663D-08  .284431559277D+01
    -.326149165630D-05  .460068986285D-02  .661984086037D-05  .515370118523D+04
     .266384000000D+06 -.260770320892D-07 -.185721537849D+01 -.931322574615D-07
     .977859755144D+00  .257468750000D+03  .100476469408D+01 -.776532345689D-08
     .403588239642D-10  .100000000000D+01  .225500000000D+04  .000000000000D+00
     .240000000000D+01  .000000000000D+00  .186264514923D-08  .440000000000D+02
     .263220000000D+06  .400000000000D+01
14 23  3 29  3 44 32.0  .905804336071D-05  .108002495836D-10  .000000000000D+00
     .119000000000D+03  .490312500000D+02  .461590655675D-08 -.271768427300D+01
     .264868140221D-05  .287416717038D-02  .797025859356D-05  .515367240143D+04
     .272672000000D+06  .186264514923D-08  .131623633345D+01  .204890966415D-07
     .949137355541D+00  .221781250000D+03 -.307459749945D+01 -.799854745732D-08
    -.102147111980D-09  .100000000000D+01  .225500000000D+04  .000000000000D+00
     .240000000000D+01  .000000000000D+00 -.791624188423D-08  .631000000000D+03
     .265500000000D+06  .400000000000D+01
3  23  3 29  3 59 44.0 -.340988859534D-03  .773070496507D-11  .000000000000D+00
     .450000000000D+02 -.713125000000D+02  .423053336155D-08 -.238880545186D+01
    -.362657010555D-05  .460285786539D-02  .622868537903D-05  .515369704247D+04
     .273584000000D+06  .894069671631D-07 -.185727201975D+01 -.242143869400D-07
     .977860287646D+00  .269468750000D+03  .100486352444D+01 -.780925385820D-08
     .141434462742D-09  .100000000000D+01  .225500000000D+04  .000000000000D+00
     .240000000000D+01  .000000000000D+00  .186264514923D-08  .450000000000D+02
     .266400000000D+06  .400000000000D+01
13 23  3 29  3 59 44.0  .497625209391D-03  .568434188608D-11  .000000000000D+00
     .400000000000D+01 -.246250000000D+02  .445375694543D-08  .540011683140D+00
    -.109896063805D-05  .682611716911D-02  .815466046333D-05  .515366653442D+04
     .273584000000D+06 -.670552253723D-07 -.672679555895D+00  .745058059692D-07
     .969682758448D+00  .225812500000D+03  .919067503056D+00 -.796604610351D-08
     .539308178636D-10  .100000000000D+01  .225500000000D+04  .000000000000D+00
     .240000000000D+01  .000000000000D+00 -.111758708954D-07  .400000000000D+01
     .266400000000D+06  .400000000000D+01
21 23  3 29  3 59 44.0  .154323875904D-03  .000000000000D+00  .000000000000D+00
     .160000000000D+02 -.881250000000D+01  .469626704694D-08  .908830564098D+00
    -.892207026482D-06  .248088660883D-01  .345706939697D-05  .515363804817D+04
     .273584000000D+06  .430271029472D-06 -.299010045131D+01 -.368803739548D-06
     .961859313941D+00  .312000000000D+03 -.787581788068D+00 -.839677833095D-08
     .710743891050D-10  .100000000000D+01  .225500000000D+04  .000000000000D+00
     .240000000000D+01  .000000000000D+00 -.102445483208D-07  .160000000000D+02
     .266400000000D+06  .400000000000D+01
2  23  3 29  4  0  0.0 -.610772054642D-03  .295585778076D-11  .000000000000D+00
     .510000000000D+02 -.853125000000D+01  .428089260207D-08 -.224910972358D+01
    -.540167093277D-07  .198264502687D-01  .356696546078D-05  .515368601799D+04
     .273600000000D+06  .134110450745D-06 -.298575713531D+01  .262632966042D-06
     .967533721549D+00  .309937500000D+03 -.131457340814D+01 -.784639826255D-08
     .148220459691D-09  .100000000000D+01  .225500000000D+04  .000000000000D+00
     .240000000000D+01  .000000000000D+00 -.176951289177D-07  .510000000000D+02
     .266400000000D+06  .400000000000D+01
1  23  3 29  4  0  0.0  .198246445507D-03 -.352429196937D-11  .000000000000D+00
     .109000000000D+03 -.903125000000D+01  .398266589402D-08 -.123921243554D+01
    -.271946191788D-06  .125939334976D-01  .405870378017D-05  .515364713860D+04
     .273600000000D+06  .290572643280D-06 -.288815001221D+01  .163912773132D-06
     .989946145859D+00  .313968750000D+03  .943152488921D+00 -.787639951223D-08
     .975040614355D-10  .100000000000D+01  .225500000000D+04  .000000000000D+00
     .340000000000D+01  .000000000000D+00  .465661287308D-08  .109000000000D+03
     .266400000000D+06  .400000000000D+01
